BEIJING 1               
1 28890U 05043A   24353.12216505  .00000975  00000+0  20005-3 0  9998
2 28890  98.2211 114.9485 0014632 186.1050 173.9976 14.62837568 20780
HUANJING 1A (HJ-1A)     
1 33320U 08041A   24353.10971493  .00003300  00000+0  42514-3 0  9999
2 33320  97.6345 351.2666 0021011 126.9711 233.3430 14.81554501877574
HUANJING 1B (HJ-1B)     
1 33321U 08041B   24353.16932022  .00002515  00000+0  32394-3 0  9993
2 33321  97.6261 355.7442 0037735 171.8683 188.3150 14.81414533877602
YAOGAN-4                
1 33446U 08061A   24352.86614133  .00002901  00000+0  37905-3 0  9991
2 33446  97.8942 281.5183 0016148  52.5941 307.6739 14.81145841864735
DEIMOS-1                
1 35681U 09041A   24353.13499746  .00001548  00000+0  24228-3 0  9995
2 35681  97.6837 165.3809 0002276 121.3704 238.7728 14.74072188826401
UK-DMC 2                
1 35683U 09041C   24353.12357599  .00002317  00000+0  35655-3 0  9996
2 35683  97.8048 133.6301 0001126  99.9545 260.1791 14.74391574826109
DMC3-FM1                
1 40715U 15032A   24353.09661581  .00001809  00000+0  22071-3 0  9993
2 40715  97.7225 226.4145 0006987  57.2439 302.9448 14.84520998508851
DMC3-FM2                
1 40716U 15032B   24353.11895424  .00001797  00000+0  21922-3 0  9992
2 40716  97.7280 227.6297 0008869  59.6832 300.5259 14.84518129508855
DMC3-FM3                
1 40717U 15032C   24353.08762812  .00001771  00000+0  21654-3 0  9997
2 40717  97.7333 228.9632 0010290  56.7502 303.4698 14.84422259508852
